{"type": "FeatureCollection", "features": [ {"type": "Feature", "properties": {"norad_id": 36689, "name": "FENGYUN 1C DEB", "group": "fengyun-1c-debris", "lat": -60.57368465055462, "lon": 57.292582677071294, "alt_km": 771.4454179667873, "timestamp": "2025-12-26T06:43:29.800344+00:00", "meta": {"OBJECT_NAME": "FENGYUN 1C DEB", "OBJECT_ID": "1999-025DZK", "EPOCH": "2025-11-28T10:04:14.213280", "MEAN_MOTION": 13.74189275, "ECCENTRICITY": 0.03131537, "INCLINATION": 98.4796, "RA_OF_ASC_NODE": 227.8431, "ARG_OF_PERICENTER": 334.7216, "MEAN_ANOMALY": 23.8887, "EPHEMERIS_TYPE": 0, "CLASSIFICATION_TYPE": "U", "NORAD_CAT_ID": 36689, "ELEMENT_SET_NO": 999, "REV_AT_EPOCH": 58016, "BSTAR": 0.0027905602, "MEAN_MOTION_DOT": 3.71e-05, "MEAN_MOTION_DDOT": 0}, "tle": {"line1": "1 36689U 99025DZK 25332.41960895  .00003710  00000+0  27906-2 0  9990", "line2": "2 36689  98.4796 227.8431 0313153 334.7216  23.8887 13.74189275580169"}}, "geometry": {"type": "Point", "coordinates": [57.292582677071294, -60.57368465055462]}}, {"type": "Feature", "properties": {"norad_id": 36691, "name": "FENGYUN 1C DEB", "group": "fengyun-1c-debris", "lat": -51.078086598375776, "lon": 168.9560689033892, "alt_km": 798.1748876558668, "timestamp": "2025-12-26T06:43:29.800354+00:00", "meta": {"OBJECT_NAME": "FENGYUN 1C DEB", "OBJECT_ID": "1999-025DZM", "EPOCH": "2025-12-08T17:50:07.073952", "MEAN_MOTION": 14.07105067, "ECCENTRICITY": 0.01290803, "INCLINATION": 98.6374, "RA_OF_ASC_NODE": 343.0423, "ARG_OF_PERICENTER": 246.8073, "MEAN_ANOMALY": 111.9457, "EPHEMERIS_TYPE": 0, "CLASSIFICATION_TYPE": "U", "NORAD_CAT_ID": 36691, "ELEMENT_SET_NO": 999, "REV_AT_EPOCH": 59553, "BSTAR": 0.0032098608, "MEAN_MOTION_DOT": 5.753e-05, "MEAN_MOTION_DDOT": 0}, "tle": {"line1": "1 36691U 99025DZM 25342.74313743  .00005753  00000+0  32099-2 0  9992", "line2": "2 36691  98.6374 343.0423 0129080 246.8073 111.9457 14.07105067595539"}}, "geometry": {"type": "Point", "coordinates": [168.9560689033892, -51.078086598375776]}}, {"type": "Feature", "properties": {"norad_id": 36692, "name": "FENGYUN 1C DEB", "group": "fengyun-1c-debris", "lat": -72.48630679247059, "lon": -58.595943803928996, "alt_km": 873.0675600501127, "timestamp": "2025-12-26T06:43:29.800364+00:00", "meta": {"OBJECT_NAME": "FENGYUN 1C DEB", "OBJECT_ID": "1999-025DZN", "EPOCH": "2025-12-24T13:43:23.157120", "MEAN_MOTION": 13.93485945, "ECCENTRICITY": 0.01144657, "INCLINATION": 99.9949, "RA_OF_ASC_NODE": 265.5847, "ARG_OF_PERICENTER": 342.2339, "MEAN_ANOMALY": 17.4832, "EPHEMERIS_TYPE": 0, "CLASSIFICATION_TYPE": "U", "NORAD_CAT_ID": 36692, "ELEMENT_SET_NO": 999, "REV_AT_EPOCH": 59970, "BSTAR": 0.0004851142, "MEAN_MOTION_DOT": 6.19e-06, "MEAN_MOTION_DDOT": 0}, "tle": {"line1": "1 36692U 99025DZN 25358.57179580  .00000619  00000+0  48511-3 0  9993", "line2": "2 36692  99.9949 265.5847 0114465 342.2339  17.4832 13.93485945599707"}}, "geometry": {"type": "Point", "coordinates": [-58.595943803928996, -72.48630679247059]}}, {"type": "Feature", "properties": {"norad_id": 36695, "name": "FENGYUN 1C DEB", "group": "fengyun-1c-debris", "lat": 81.76976770554487, "lon": -107.42276445359624, "alt_km": 554.9460981065167, "timestamp": "2025-12-26T06:43:29.800374+00:00", "meta": {"OBJECT_NAME": "FENGYUN 1C DEB", "OBJECT_ID": "1999-025DZR", "EPOCH": "2025-12-24T04:25:32.338848", "MEAN_MOTION": 14.43766629, "ECCENTRICITY": 0.02577513, "INCLINATION": 98.2225, "RA_OF_ASC_NODE": 339.1444, "ARG_OF_PERICENTER": 95.6825, "MEAN_ANOMALY": 267.3815, "EPHEMERIS_TYPE": 0, "CLASSIFICATION_TYPE": "U", "NORAD_CAT_ID": 36695, "ELEMENT_SET_NO": 999, "REV_AT_EPOCH": 89733, "BSTAR": 0.00019034528, "MEAN_MOTION_DOT": 9.19e-06, "MEAN_MOTION_DDOT": 0}, "tle": {"line1": "1 36695U 99025DZR 25358.18440207  .00000919  00000+0  19035-3 0  9992", "line2": "2 36695  98.2225 339.1444 0257751  95.6825 267.3815 14.43766629897339"}}, "geometry": {"type": "Point", "coordinates": [-107.42276445359624, 81.76976770554487]}}, {"type": "Feature", "properties": {"norad_id": 36696, "name": "FENGYUN 1C DEB", "group": "fengyun-1c-debris", "lat": 58.10497440661665, "lon": -155.33734911507668, "alt_km": 770.96413128319, "timestamp": "2025-12-26T06:43:29.800384+00:00", "meta": {"OBJECT_NAME": "FENGYUN 1C DEB", "OBJECT_ID": "1999-025DZS", "EPOCH": "2025-12-20T18:21:37.280448", "MEAN_MOTION": 14.39290248, "ECCENTRICITY": 0.0022773, "INCLINATION": 98.991, "RA_OF_ASC_NODE": 4.1437, "ARG_OF_PERICENTER": 304.9139, "MEAN_ANOMALY": 54.9908, "EPHEMERIS_TYPE": 0, "CLASSIFICATION_TYPE": "U", "NORAD_CAT_ID": 36696, "ELEMENT_SET_NO": 999, "REV_AT_EPOCH": 64511, "BSTAR": 0.0012348867, "MEAN_MOTION_DOT": 3.799e-05, "MEAN_MOTION_DDOT": 0}, "tle": {"line1": "1 36696U 99025DZS 25354.76501482  .00003799  00000+0  12349-2 0  9995", "line2": "2 36696  98.9910   4.1437 0022773 304.9139  54.9908 14.39290248645111"}}, "geometry": {"type": "Point", "coordinates": [-155.33734911507668, 58.10497440661665]}}, {"type": "Feature", "properties": {"norad_id": 36699, "name": "FENGYUN 1C DEB", "group": "fengyun-1c-debris", "lat": 32.36581313745251, "lon": 179.91013068893557, "alt_km": 770.4190409353741, "timestamp": "2025-12-26T06:43:29.800394+00:00", "meta": {"OBJECT_NAME": "FENGYUN 1C DEB", "OBJECT_ID": "1999-025DZV", "EPOCH": "2025-12-23T05:32:53.455200", "MEAN_MOTION": 14.24305286, "ECCENTRICITY": 0.00948854, "INCLINATION": 98.5593, "RA_OF_ASC_NODE": 351.4625, "ARG_OF_PERICENTER": 99.8572, "MEAN_ANOMALY": 261.3335, "EPHEMERIS_TYPE": 0, "CLASSIFICATION_TYPE": "U", "NORAD_CAT_ID": 36699, "ELEMENT_SET_NO": 999, "REV_AT_EPOCH": 73476, "BSTAR": 0.00021503407, "MEAN_MOTION_DOT": 4.78e-06, "MEAN_MOTION_DDOT": 0}, "tle": {"line1": "1 36699U 99025DZV 25357.23117425  .00000478  00000+0  21503-3 0  9997", "line2": "2 36699  98.5593 351.4625 0094885  99.8572 261.3335 14.24305286734769"}}, "geometry": {"type": "Point", "coordinates": [179.91013068893557, 32.36581313745251]}}, {"type": "Feature", "properties": {"norad_id": 36701, "name": "FENGYUN 1C DEB", "group": "fengyun-1c-debris", "lat": 48.05104888092839, "lon": -55.57332848275628, "alt_km": 1178.908761999529, "timestamp": "2025-12-26T06:43:29.800404+00:00", "meta": {"OBJECT_NAME": "FENGYUN 1C DEB", "OBJECT_ID": "1999-025DZX", "EPOCH": "2025-12-25T14:42:49.417344", "MEAN_MOTION": 13.71379325, "ECCENTRICITY": 0.0258174, "INCLINATION": 102.7471, "RA_OF_ASC_NODE": 318.1305, "ARG_OF_PERICENTER": 224.125, "MEAN_ANOMALY": 133.9027, "EPHEMERIS_TYPE": 0, "CLASSIFICATION_TYPE": "U", "NORAD_CAT_ID": 36701, "ELEMENT_SET_NO": 999, "REV_AT_EPOCH": 61315, "BSTAR": 0.0017616, "MEAN_MOTION_DOT": 1.936e-05, "MEAN_MOTION_DDOT": 0}, "tle": {"line1": "1 36701U 99025DZX 25359.61307196  .00001936  00000+0  17616-2 0  9990", "line2": "2 36701 102.7471 318.1305 0258174 224.1250 133.9027 13.71379325613157"}}, "geometry": {"type": "Point", "coordinates": [-55.57332848275628, 48.05104888092839]}}, {"type": "Feature", "properties": {"norad_id": 36707, "name": "FENGYUN 1C DEB", "group": "fengyun-1c-debris", "lat": 52.787052037039224, "lon": 34.48104551782676, "alt_km": 798.241277772122, "timestamp": "2025-12-26T06:43:29.800414+00:00", "meta": {"OBJECT_NAME": "FENGYUN 1C DEB", "OBJECT_ID": "1999-025EAD", "EPOCH": "2025-12-21T21:25:47.185536", "MEAN_MOTION": 14.17337167, "ECCENTRICITY": 0.00496219, "INCLINATION": 98.751, "RA_OF_ASC_NODE": 41.8648, "ARG_OF_PERICENTER": 96.1028, "MEAN_ANOMALY": 264.5804, "EPHEMERIS_TYPE": 0, "CLASSIFICATION_TYPE": "U", "NORAD_CAT_ID": 36707, "ELEMENT_SET_NO": 999, "REV_AT_EPOCH": 64209, "BSTAR": 0.00072069372, "MEAN_MOTION_DOT": 1.432e-05, "MEAN_MOTION_DDOT": 0}, "tle": {"line1": "1 36707U 99025EAD 25355.89290724  .00001432  00000+0  72069-3 0  9995", "line2": "2 36707  98.7510  41.8648 0049621  96.1028 264.5804 14.17337167642094"}}, "geometry": {"type": "Point", "coordinates": [34.48104551782676, 52.787052037039224]}}, {"type": "Feature", "properties": {"norad_id": 36710, "name": "FENGYUN 1C DEB", "group": "fengyun-1c-debris", "lat": 70.11767239147198, "lon": -98.61419828530005, "alt_km": 678.087445515258, "timestamp": "2025-12-26T06:43:29.800427+00:00", "meta": {"OBJECT_NAME": "FENGYUN 1C DEB", "OBJECT_ID": "1999-025EAG", "EPOCH": "2025-12-15T10:11:57.749280", "MEAN_MOTION": 14.49882943, "ECCENTRICITY": 0.00679739, "INCLINATION": 98.3812, "RA_OF_ASC_NODE": 46.5328, "ARG_OF_PERICENTER": 173.535, "MEAN_ANOMALY": 186.6737, "EPHEMERIS_TYPE": 0, "CLASSIFICATION_TYPE": "U", "NORAD_CAT_ID": 36710, "ELEMENT_SET_NO": 999, "REV_AT_EPOCH": 64992, "BSTAR": 0.00098752348, "MEAN_MOTION_DOT": 3.884e-05, "MEAN_MOTION_DDOT": 0}, "tle": {"line1": "1 36710U 99025EAG 25349.42497395  .00003884  00000+0  98752-3 0  9994", "line2": "2 36710  98.3812  46.5328 0067973 173.5350 186.6737 14.49882943649924"}}, "geometry": {"type": "Point", "coordinates": [-98.61419828530005, 70.11767239147198]}}, {"type": "Feature", "properties": {"norad_id": 36711, "name": "FENGYUN 1C DEB", "group": "fengyun-1c-debris", "lat": -12.330301083864565, "lon": 25.539137761811695, "alt_km": 825.4024725346262, "timestamp": "2025-12-26T06:43:29.800438+00:00", "meta": {"OBJECT_NAME": "FENGYUN 1C DEB", "OBJECT_ID": "1999-025EAH", "EPOCH": "2025-12-22T19:33:17.805888", "MEAN_MOTION": 14.42563106, "ECCENTRICITY": 0.01001116, "INCLINATION": 100.8026, "RA_OF_ASC_NODE": 18.7671, "ARG_OF_PERICENTER": 180.6159, "MEAN_ANOMALY": 179.4915, "EPHEMERIS_TYPE": 0, "CLASSIFICATION_TYPE": "U", "NORAD_CAT_ID": 36711, "ELEMENT_SET_NO": 999, "REV_AT_EPOCH": 64456, "BSTAR": 0.0021992157, "MEAN_MOTION_DOT": 7.693e-05, "MEAN_MOTION_DDOT": 0}, "tle": {"line1": "1 36711U 99025EAH 25356.81478942  .00007693  00000+0  21992-2 0  9996", "line2": "2 36711 100.8026  18.7671 0100111 180.6159 179.4915 14.42563106644564"}}, "geometry": {"type": "Point", "coordinates": [25.539137761811695, -12.330301083864565]}}]}